TECHSAT 1B (GO-32)      
1 25397U 98043D   26187.94313305  .00000041  00000+0  37960-4 0  9995
2 25397  99.0077 181.2008 0001942 128.2186 231.9167 14.24432204454147
TERRA                   
1 25994U 99068A   26188.77860100  .00000307  00000+0  71539-4 0  9993
2 25994  97.9444 237.5073 0003059 137.6111 341.4830 14.61119717412617
TERRASAR-X              
1 31698U 07026A   26188.47915537  .00000240  00000+0  14624-4 0  9994
2 31698  97.4461 195.8972 0001878  86.9540 273.1909 15.19153986 56300
THEOS                   
1 33396U 08049A   26188.89421487 -.00000328  00000+0 -13391-3 0  9997
2 33396  98.5556 245.5046 0001137  84.6876 275.4431 14.20135146920904
TANDEM-X                
1 36605U 10030A   26188.47915494  .00000386  00000+0  21566-4 0  9992
2 36605  97.4457 195.8973 0001887  94.3019 265.8431 15.19154052889726
SUOMI NPP               
1 37849U 11061A   26188.78147397  .00000056  00000+0  47617-4 0  9990
2 37849  98.7955 129.5172 0000567 270.2245  89.8866 14.19521584761361
SWOT                    
1 54754U 22173A   26188.70998069 -.00000018  00000+0 -10313-4 0  9995
2 54754  77.6104   7.6033 0000281  77.5454 282.5729 14.00171867182027
TIANMU-1 03             
1 55973U 23039A   26188.80588590  .00009958  00000+0  19308-3 0  9998
2 55973  97.5247   3.5917 0003194  45.1577 314.9932 15.47892574184024
STRIX-7                 
1 69177U 26112A   26188.73065403  .00002825  00000+0  23117-3 0  9998
2 69177  44.9070  84.5410 0023834 166.3984 193.7534 15.01571839  6968
STRIX-8                 
1 69701U 26146A   26188.78312578  .00003213  00000+0  23951-3 0  9999
2 69701  41.9897  54.1514 0008398 334.2972  25.7437 15.04392357  1661
